IRIDIUM 57              
1 25273U 98019B   24210.20978114  .00000525  00000+0  17651-3 0  9991
2 25273  86.3947 280.9384 0002279  93.5927 266.5530 14.35300461378515
IRIDIUM 63              
1 25286U 98021B   24209.93898502  .00000631  00000+0  21135-3 0  9998
2 25286  86.3978 217.9540 0002142  93.1620 266.9822 14.35848646377308
IRIDIUM 69              
1 25319U 98026A   24209.40107577  .00000684  00000+0  21060-3 0  9992
2 25319  86.3958 232.4417 0003623  53.0692 307.0838 14.40100534376303
IRIDIUM 71              
1 25320U 98026B   24210.08717712  .00000673  00000+0  20581-3 0  9993
2 25320  86.3960 226.9056 0004435  83.8758 276.2946 14.40406797377174
IRIDIUM 73              
1 25344U 98032C   24210.20670086  .00001037  00000+0  25918-3 0  9996
2 25344  86.4457 184.2481 0002626  75.8853 284.2643 14.50658958383873
IRIDIUM 82              
1 25467U 98051A   24210.20094994  .00012583  00000+0  60335-3 0  9991
2 25467  86.3728 266.2901 0125718  70.3487 291.1267 15.11927966374682
